NUSAT-1 (FRESCO)        
1 41557U 16033B   22053.12176020  .00007925  00000+0  26078-3 0  9994
2 41557  97.3879 150.9326 0013354  70.4529  49.5989 15.31695287319718
BEESAT-4                
1 41619U 16040W   22052.89697869  .00008536  00000+0  31590-3 0  9997
2 41619  97.2351 106.7927 0010678 159.7119 200.4547 15.27861593303068
CAS-2T & KS-1Q          
1 41847U 16066G   22053.15566662  .00000669  00000+0  11068-3 0  9991
2 41847  98.5671 117.8894 0364478 194.4801 164.5721 14.38376131277772
NAYIF-1 (EO-88)         
1 42017U 17008BX  22052.74103354  .00008766  00000+0  29640-3 0  9998
2 42017  97.2843 120.7878 0004258 311.1750  48.9124 15.30854434279350
ZHUHAI-1 02 (CAS-4B)    
1 42759U 17034B   22053.06769277  .00002015  00000+0  13178-3 0  9998
2 42759  43.0168 248.2219 0009543 283.9118 222.5340 15.10936938258897
ZHUHAI-1 01 (CAS-4A)    
1 42761U 17034D   22053.04351942  .00001880  00000+0  12356-3 0  9991
2 42761  43.0165 247.2244 0009806 287.5189 214.8914 15.11020719258897
MAX VALIER SAT          
1 42778U 17036P   22052.91040864  .00004793  00000+0  19431-3 0  9991
2 42778  97.2234  98.0427 0011799  23.9271 336.2514 15.25039831259285
RADFXSAT (FOX-1B)       
1 43017U 17073E   22052.69534394  .00002025  00000+0  15912-3 0  9996
2 43017  97.6883 311.6150 0251250 206.2789 152.5499 14.80417302229989
FOX-1D (AO-92)          
1 43137U 18004AC  22053.17653527  .00006123  00000+0  23334-3 0  9998
2 43137  97.3800 129.5277 0009426  56.4095 303.8043 15.27033441228733
DIWATA-2B               
1 43678U 18084H   22053.10084118  .00000134  00000+0  19046-4 0  9995
2 43678  97.9504 185.1728 0008981 313.4639  46.5828 14.91925488180655
ES'HAIL 2               
1 43700U 18090A   22052.61817404  .00000147  00000+0  00000+0 0  9994
2 43700   0.0155 114.3712 0002548 252.9287  32.5411  1.00273974 11865
FOX-1CLIFF (AO-95)      
1 43770U 18099N   22052.75083599  .00001434  00000+0  13342-3 0  9992
2 43770  97.6358 122.0848 0013094 307.5978  52.4053 14.95800977175712
ITASAT 1                
1 43786U 18099AE  22053.16025024  .00000985  00000+0  92703-4 0  9993
2 43786  97.6380 123.3334 0013685 298.0718  61.9119 14.96033834175810
JY1SAT (JO-97)          
1 43803U 18099AX  22052.87589207  .00002169  00000+0  19622-3 0  9992
2 43803  97.6343 122.7934 0013399 298.1218  61.8649 14.96381878175783
UWE-4                   
1 43880U 18111E   22052.69028167  .00002362  00000+0  20782-3 0  9999
2 43880  97.6768 321.0377 0011873 358.2137   1.9040 14.97422115172370
NEXUS (FO-99)           
1 43937U 19003F   22053.06599216  .00007424  00000+0  27397-3 0  9996
2 43937  97.1470  91.0542 0021323 201.4839 158.5508 15.27834642172346
PSAT2 (NO-104)          
1 44354U 19036R   22052.88437404  .00058190  00000+0  65575-3 0  9991
2 44354  28.5233 251.1175 0278170 121.3678 241.4446 15.26280833146936
BRICSAT2 (NO-103)       
1 44355U 19036S   22052.95027088  .00154173 -45248-6  84170-3 0  9994
2 44355  28.5213 145.2354 0141025 294.1822  64.4100 15.65415469147989
JAISAT-1                
1 44419U 19038F   22052.88289732  .00004545  00000+0  24405-3 0  9996
2 44419  97.6235  22.3594 0020685 166.4715 193.7075 15.15260183145545
DUCHIFAT-3              
1 44854U 19089C   22053.12740063  .00002293  00000+0  18622-3 0  9994
2 44854  36.9668  63.5484 0008538 357.2852   2.7843 15.00170663120603
CAS-6 (TO-108)          
1 44881U 19093C   22053.16365027  .00000356  00000+0  51987-4 0  9996
2 44881  97.9023 134.0028 0014421 196.3181 163.7578 14.81573872117705
RS-44 & BREEZE-KM R/B   
1 44909U 19096E   22052.95012530  .00000003  00000+0 -25912-4 0  9993
2 44909  82.5225 307.0318 0216486 229.6527 128.5492 12.79711981100732
ORBITAL FACTORY 2 (OF-2)
1 45113U 19071C   22052.84622015  .00013285  00000+0  33977-3 0  9991
2 45113  51.6398 265.6039 0011041 119.6324 240.5761 15.39698437115537
HUSKYSAT-1 (HO-107)     
1 45119U 19071J   22052.87268348  .00011526  00000+0  29922-3 0  9996
2 45119  51.6392 265.0150 0010619 116.1116 244.0962 15.39389481115534
BY70-2                  
1 45857U 20042B   22053.20696378  .00003864  00000+0  53943-3 0  9997
2 45857  97.9645 131.2716 0012227 127.7714 232.4602 14.78198896 88427
SALSAT                  
1 46495U 20068K   22052.81381922  .00001006  00000+0  77420-4 0  9999
2 46495  97.7195 354.2168 0015362 313.9858  46.0100 15.03912693 76802
BY70-3                  
1 46839U 20079N   22053.18920429  .00012898  00000+0  35677-3 0  9993
2 46839  97.2127 127.1617 0007291  40.1138  44.3428 15.37113642 72514
RADFXSAT-2 (AO-109)     
1 47311U 21002C   22052.62288468  .00004521  00000+0  19977-3 0  9993
2 47311  60.6851  77.5669 0020668 182.6665 177.4315 15.23251454 60804
UVSQ-SAT                
1 47438U 21006AB  22052.88706242  .00003517  00000+0  19588-3 0  9992
2 47438  97.4540 114.3057 0011285 321.6631  38.3797 15.14221001 59780
DIY-1 (ARDUIQUBE)       
1 47963U 21022AH  22052.69389836  .00007591  00000+0  47220-3 0  9998
2 47963  97.5420 315.6749 0018488 165.9329 194.2419 15.09762591 49465
XW-3 (CAS-9)            
1 50466U 21131B   22053.19220571  .00000069  00000+0  37294-4 0  9991
2 50466  98.5908 130.4652 0005777 126.7646 233.4076 14.38444041  8344
